#aV2014  7 13  0  0  0.00000000     288 DD+AD WGS84 FIT  NGA
## 1801      0.00000000   300.00000000 56851 0.0000000000000
+   32     1  2  3  4  5  6  7  8  9 10 11 12 13 14 15 16 17
+         18 19 20 21 22 23 24 25 26 27 28 29 30 31 32  0  0
+          0  0  0  0  0  0  0  0  0  0  0  0  0  0  0  0  0
+          0  0  0  0  0  0  0  0  0  0  0  0  0  0  0  0  0
+          0  0  0  0  0  0  0  0  0  0  0  0  0  0  0  0  0
++         2  2  2  2  2  2  2  2  2  2  2  2  2  2  2  2  2
++         2  2  2  2  2  2  2  2  2  2  2  2  2  2  2  0  0
++         0  0  0  0  0  0  0  0  0  0  0  0  0  0  0  0  0
++         0  0  0  0  0  0  0  0  0  0  0  0  0  0  0  0  0
++         0  0  0  0  0  0  0  0  0  0  0  0  0  0  0  0  0
%c cc cc ccc ccc cccc cccc cccc cccc ccccc ccccc ccccc ccccc
%c cc cc ccc ccc cccc cccc cccc cccc ccccc ccccc ccccc ccccc
%f  0.0000000  0.000000000  0.00000000000  0.000000000000000
%f  0.0000000  0.000000000  0.00000000000  0.000000000000000
%i    0    0    0    0      0      0      0      0         0
%i    0    0    0    0      0      0      0      0         0
/*      NGA, ST. LOUIS,MO.                                  
/*   EPHEMERIS COMPUTED FROM  1 DAYS OF DATA                
/*   EPOCHA SMOOTHER                                       
/* CCCCCCCCCCCCCCCCCCCCCCCCCCCCCCCCCCCCCCCCCCCCCCCCCCCCCCCCC
*  2014  7 13 21 55  0.00000000
P  1  17401.740201   3868.700220  19701.132804     17.571821                    
V  1  10351.664205  22833.001796 -13457.723015      0.008263                    
P  2 -13882.438382 -22875.766831  -1617.549648    506.572630                    
V  2   1541.218429  -3567.282292  30881.454306      0.021815                    
P  3  22305.966241   7305.575127 -13125.347839    390.149658                    
V  3 -15417.559481   4175.914202 -24810.905026      0.049556                    
P  4   2507.502064 -20567.880961  16135.670162      7.382960                    
V  4  12170.604656  17614.975520  20436.337800     -0.000047                    
P  5  -8637.414345 -14208.728091 -20712.532717   -358.319270                    
V  5  14960.868966 -21663.111414   8801.983073      0.030967                    
P  6  -5552.609531 -24356.602355   9025.771282      0.709058                    
V  6   7553.170354   9002.994114  28899.677683     -0.023687                    
P  7  11170.617801 -10553.071303 -21543.906658    368.359297                    
V  7  12566.011331  24523.494736  -5816.530994      0.042556                    
P  8   7287.362974 -16309.621578 -19259.267367     14.698652                    
V  8   9709.699983  23009.243563 -16276.819758      0.001109                    
P  9   1108.290320 -21414.267425 -16055.153680    163.068006                    
V  9  10163.389093  16667.042778 -22479.594787      0.559898                    
P 10   5198.257103 -23240.528430 -11644.003390   -133.510731                    
V 10  10577.225277 -10349.498841  26569.442777     -0.016727                    
P 11  22160.196523   8521.501140  11599.660618   -505.003662                    
V 11   8308.801874  13820.357784 -24760.404477     -0.030719                    
P 12 -17686.746594   2862.530132  19452.278072    217.874046                    
V 12  13415.895348 -20970.355640  15434.108857      0.025428                    
P 13  23023.781394  -4976.004669 -12564.816954    -20.231430                    
V 13  15205.533740   4131.594140  26323.639546     -0.038936                    
P 14  -6157.182939  14264.252188  21751.972562    154.735632                    
V 14 -26811.797514  -3783.329922  -5313.050953     -0.035602                    
P 15 -25824.078899  -4247.502163  -5435.002363   -190.806378                    
V 15   6828.864340  -3153.183140 -30000.330495     -0.022060                    
P 16   7343.481169  13873.104061 -21415.553504   -207.745058                    
V 16 -16489.708099  21465.907015   8620.111119      0.022087                    
P 17   5677.470574 -14476.425254  21766.012044   -108.675069                    
V 17  26868.733379   2953.059862  -5327.548236     -0.029373                    
P 18 -16444.505524  20072.739315  -4315.406308    331.387891                    
V 18   -297.256682  -7420.823713 -30497.359720      0.023890                    
P 19  24227.403661   8728.579673  -7555.381484   -467.979059                    
V 19  -9469.547692    752.684081 -29661.612189     -0.020481                    
P 20  18764.394093  -7248.146262  17126.562659    210.305948                    
V 20  -8738.144465  20596.906945  18160.083883      0.041841                    
P 21  -8315.113234  15131.072686 -19425.882323   -372.454785                    
V 21 -13772.422813 -22479.654007 -11686.028736     -0.021462                    
P 22  -8288.715781  24017.937944   7662.049084    249.969694                    
V 22  -8332.377379   6031.622772 -28901.744254      0.033562                    
P 23  26689.840551    -98.850413  -2268.754289    -36.300110                    
V 23   2828.707668   2904.916463  31094.179313     -0.030033                    
P 24 -18272.292648  -8097.525975  17518.987837    -31.757606                    
V 24  -8931.336248 -20463.216537 -18655.953211     -0.006810                    
P 25 -18682.306658  14822.831917  11469.611661     24.773064                    
V 25   6150.705591 -13525.837193  27440.210550     -0.002160                    
P 26 -18172.587474 -13077.024512 -15162.830527     15.502077                    
V 26  17972.997888   1266.821055 -23390.791056     -0.125517                    
P 27  16370.273144  12449.833055 -16854.002886     -2.454838                    
V 27 -21399.477505    713.456655 -20208.930509      0.029869                    
P 28  12579.509762 -22846.930086   5229.011313    369.381797                    
V 28   5074.562461  -3555.871009 -31501.798297      0.028097                    
P 29 -22798.381910   6056.089383 -12129.951493    546.462125                    
V 29 -15161.163371  -3678.292616  26632.117033      0.026379                    
P 30   4543.405125 -19908.472843 -16969.762096    -32.037254                    
V 30  10039.800915  19160.675499 -19839.727881     -0.063606                    
P 31   5940.375106  24568.430336   7769.401185    333.525116                    
V 31  -6301.078536  -7767.601844  30261.505672     -0.002503                    
P 32  13726.127446   7501.376160  21476.812764   -385.977431                    
V 32 -16183.833930  21933.452017   3227.378824      0.083285                    
EOF
